{
  "type": "FeatureCollection",
  "features": [
    {
      "type": "Feature",
      "properties": {
        "norad_id": 66921,
        "name": "HULIANWANG DIGUI 14G",
        "group": "last-30-days",
        "lat": -44.07476595337745,
        "lon": 5.225679315359967,
        "alt_km": 873.817739936947,
        "timestamp": "2025-12-09T09:46:46.423697+00:00",
        "meta_object_name": "HULIANWANG DIGUI 14G",
        "meta_object_id": "2025-285G",
        "meta_epoch": "2025-12-09T05:12:19.598400",
        "meta_mean_motion": 14.05882247,
        "meta_eccentricity": 0.0006961,
        "meta_inclination": 50.0104,
        "meta_ra_of_asc_node": 131.6502,
        "meta_arg_of_pericenter": 283.2439,
        "meta_mean_anomaly": 76.7689,
        "meta_ephemeris_type": 0,
        "meta_classification_type": "U",
        "meta_norad_cat_id": 66921,
        "meta_element_set_no": 999,
        "meta_rev_at_epoch": 41,
        "meta_bstar": 8.9221e-06,
        "meta_mean_motion_dot": -1.38e-06,
        "meta_mean_motion_ddot": 0,
        "tle_line1": "1 66921U 25285G   25343.21689350 -.00000138  00000+0  89221-5 0  9996",
        "tle_line2": "2 66921  50.0104 131.6502 0006961 283.2439  76.7689 14.05882247   416"
      },
      "geometry": {
        "type": "Point",
        "coordinates": [
          5.225679315359967,
          -44.07476595337745
        ]
      }
    },
    {
      "type": "Feature",
      "properties": {
        "norad_id": 66922,
        "name": "HULIANWANG DIGUI 14H",
        "group": "last-30-days",
        "lat": -44.6116799387732,
        "lon": 6.768780543634168,
        "alt_km": 873.7555514617943,
        "timestamp": "2025-12-09T09:46:46.423710+00:00",
        "meta_object_name": "HULIANWANG DIGUI 14H",
        "meta_object_id": "2025-285H",
        "meta_epoch": "2025-12-09T05:11:59.891424",
        "meta_mean_motion": 14.05997598,
        "meta_eccentricity": 0.0006917,
        "meta_inclination": 50.0078,
        "meta_ra_of_asc_node": 131.6456,
        "meta_arg_of_pericenter": 289.4766,
        "meta_mean_anomaly": 70.5392,
        "meta_ephemeris_type": 0,
        "meta_classification_type": "U",
        "meta_norad_cat_id": 66922,
        "meta_element_set_no": 999,
        "meta_rev_at_epoch": 41,
        "meta_bstar": -9.2299e-06,
        "meta_mean_motion_dot": -1.68e-06,
        "meta_mean_motion_ddot": 0,
        "tle_line1": "1 66922U 25285H   25343.21666541 -.00000168  00000+0 -92299-5 0  9997",
        "tle_line2": "2 66922  50.0078 131.6456 0006917 289.4766  70.5392 14.05997598   416"
      },
      "geometry": {
        "type": "Point",
        "coordinates": [
          6.768780543634168,
          -44.6116799387732
        ]
      }
    },
    {
      "type": "Feature",
      "properties": {
        "norad_id": 66923,
        "name": "HULIANWANG DIGUI 14J",
        "group": "last-30-days",
        "lat": -45.86318213048865,
        "lon": 10.751272681692921,
        "alt_km": 872.5061532821264,
        "timestamp": "2025-12-09T09:46:46.423721+00:00",
        "meta_object_name": "HULIANWANG DIGUI 14J",
        "meta_object_id": "2025-285J",
        "meta_epoch": "2025-12-07T22:29:36.786048",
        "meta_mean_motion": 14.06515715,
        "meta_eccentricity": 0.00053876,
        "meta_inclination": 50.0075,
        "meta_ra_of_asc_node": 136.8754,
        "meta_arg_of_pericenter": 280.8946,
        "meta_mean_anomaly": 79.1354,
        "meta_ephemeris_type": 0,
        "meta_classification_type": "U",
        "meta_norad_cat_id": 66923,
        "meta_element_set_no": 999,
        "meta_rev_at_epoch": 23,
        "meta_bstar": -4.7305e-07,
        "meta_mean_motion_dot": -1.53e-06,
        "meta_mean_motion_ddot": 0,
        "tle_line1": "1 66923U 25285J   25341.93723132 -.00000153  00000+0 -47305-6 0  9998",
        "tle_line2": "2 66923  50.0075 136.8754 0005387 280.8946  79.1354 14.06515715   238"
      },
      "geometry": {
        "type": "Point",
        "coordinates": [
          10.751272681692921,
          -45.86318213048865
        ]
      }
    },
    {
      "type": "Feature",
      "properties": {
        "norad_id": 66924,
        "name": "CZ-8A R/B",
        "group": "last-30-days",
        "lat": 18.989740683428305,
        "lon": -66.45236467459122,
        "alt_km": 744.0490345475528,
        "timestamp": "2025-12-09T09:46:46.423735+00:00",
        "meta_object_name": "CZ-8A R/B",
        "meta_object_id": "2025-285K",
        "meta_epoch": "2025-12-09T02:21:52.697376",
        "meta_mean_motion": 14.30499234,
        "meta_eccentricity": 0.0119335,
        "meta_inclination": 50.0062,
        "meta_ra_of_asc_node": 131.6541,
        "meta_arg_of_pericenter": 93.8913,
        "meta_mean_anomaly": 267.5655,
        "meta_ephemeris_type": 0,
        "meta_classification_type": "U",
        "meta_norad_cat_id": 66924,
        "meta_element_set_no": 999,
        "meta_rev_at_epoch": 40,
        "meta_bstar": 3.2292e-05,
        "meta_mean_motion_dot": -7.6e-07,
        "meta_mean_motion_ddot": 0,
        "tle_line1": "1 66924U 25285K   25343.09852659 -.00000076  00000+0  32292-4 0  9995",
        "tle_line2": "2 66924  50.0062 131.6541 0119335  93.8913 267.5655 14.30499234   407"
      },
      "geometry": {
        "type": "Point",
        "coordinates": [
          -66.45236467459122,
          18.989740683428305
        ]
      }
    }
  ]
}